{
    "links": {
        "self": "http://www.neowsapp.com/rest/v1/neo/3991734?api_key=iIulBulltgU6a56xZRHN4H3l9WmuAYTsLGpBGhQ2"
    },
    "id": "3991734",
    "neo_reference_id": "3991734",
    "name": "(2020 DH2)",
    "designation": "2020 DH2",
    "nasa_jpl_url": "http://ssd.jpl.nasa.gov/sbdb.cgi?sstr=3991734",
    "absolute_magnitude_h": 25.194,
    "estimated_diameter": {
        "kilometers": {
            "estimated_diameter_min": 0.0243083218,
            "estimated_diameter_max": 0.0543550599
        },
        "meters": {
            "estimated_diameter_min": 24.3083217769,
            "estimated_diameter_max": 54.3550599122
        },
        "miles": {
            "estimated_diameter_min": 0.0151044862,
            "estimated_diameter_max": 0.0337746579
        },
        "feet": {
            "estimated_diameter_min": 79.7517144187,
            "estimated_diameter_max": 178.3302547623
        }
    },
    "is_potentially_hazardous_asteroid": false,
    "close_approach_data": [
        {
            "close_approach_date": "2015-03-02",
            "close_approach_date_full": "2015-Mar-02 04:40",
            "epoch_date_close_approach": 1425271200000,
            "relative_velocity": {
                "kilometers_per_second": "10.3535102895",
                "kilometers_per_hour": "37272.6370421514",
                "miles_per_hour": "23159.7671665524"
            },
            "miss_distance": {
                "astronomical": "0.127375697",
                "lunar": "49.549146133",
                "kilometers": "19055132.96096539",
                "miles": "11840310.579446782"
            },
            "orbiting_body": "Earth"
        },
        {
            "close_approach_date": "2020-02-18",
            "close_approach_date_full": "2020-Feb-18 05:57",
            "epoch_date_close_approach": 1582005420000,
            "relative_velocity": {
                "kilometers_per_second": "9.8682446377",
                "kilometers_per_hour": "35525.6806956409",
                "miles_per_hour": "22074.276430022"
            },
            "miss_distance": {
                "astronomical": "0.0162827961",
                "lunar": "6.3340076829",
                "kilometers": "2435871.614204307",
                "miles": "1513580.4354091566"
            },
            "orbiting_body": "Earth"
        },
        {
            "close_approach_date": "2025-02-02",
            "close_approach_date_full": "2025-Feb-02 12:29",
            "epoch_date_close_approach": 1738499340000,
            "relative_velocity": {
                "kilometers_per_second": "12.0543235684",
                "kilometers_per_hour": "43395.5648464031",
                "miles_per_hour": "26964.3163902553"
            },
            "miss_distance": {
                "astronomical": "0.1911865969",
                "lunar": "74.3715861941",
                "kilometers": "28601107.668788603",
                "miles": "17771904.2112366014"
            },
            "orbiting_body": "Earth"
        },
        {
            "close_approach_date": "2030-01-19",
            "close_approach_date_full": "2030-Jan-19 22:10",
            "epoch_date_close_approach": 1895091000000,
            "relative_velocity": {
                "kilometers_per_second": "16.5465142041",
                "kilometers_per_hour": "59567.4511347906",
                "miles_per_hour": "37012.8976231703"
            },
            "miss_distance": {
                "astronomical": "0.3896375904",
                "lunar": "151.5690226656",
                "kilometers": "58288953.595772448",
                "miles": "36219076.2635298624"
            },
            "orbiting_body": "Earth"
        },
        {
            "close_approach_date": "2078-01-27",
            "close_approach_date_full": "2078-Jan-27 17:48",
            "epoch_date_close_approach": 3410531280000,
            "relative_velocity": {
                "kilometers_per_second": "13.884423266",
                "kilometers_per_hour": "49983.9237576713",
                "miles_per_hour": "31058.0664037597"
            },
            "miss_distance": {
                "astronomical": "0.2778585164",
                "lunar": "108.0869628796",
                "kilometers": "41567042.214800068",
                "miles": "25828562.3459262184"
            },
            "orbiting_body": "Earth"
        }
    ],
    "orbital_data": {
        "orbit_id": "3",
        "orbit_determination_date": "2020-03-03 05:34:53",
        "first_observation_date": "2020-02-19",
        "last_observation_date": "2020-03-01",
        "data_arc_in_days": 11,
        "observations_used": 96,
        "orbit_uncertainty": "7",
        "minimum_orbit_intersection": ".0152289",
        "jupiter_tisserand_invariant": "4.670",
        "epoch_osculation": "2459000.5",
        "eccentricity": ".2836774983520928",
        "semi_major_axis": "1.400217226277014",
        "inclination": "16.48284990645045",
        "ascending_node_longitude": "148.9453802996162",
        "orbital_period": "605.1897325322565",
        "perihelion_distance": "1.003007106377244",
        "perihelion_argument": "4.459220381492172",
        "aphelion_distance": "1.797427346176784",
        "perihelion_time": "2458901.644802553670",
        "mean_anomaly": "58.80448587878531",
        "mean_motion": ".5948547714014829",
        "equinox": "J2000",
        "orbit_class": {
            "orbit_class_type": "APO",
            "orbit_class_description": "Near-Earth asteroid orbits which cross the Earth’s orbit similar to that of 1862 Apollo",
            "orbit_class_range": "a (semi-major axis) > 1.0 AU; q (perihelion) < 1.017 AU"
        }
    },
    "is_sentry_object": false
}